NORAD_CAT_ID,OBJECT_NAME,OBJECT_TYPE,EPOCH,MEAN_MOTION,ECCENTRICITY,INCLINATION,RA_OF_ASC_NODE,ARG_OF_PERICENTER,MEAN_ANOMALY,BSTAR,MEAN_MOTION_DOT,MEAN_MOTION_DDOT,TLE_LINE0,TLE_LINE1,TLE_LINE2,SEMIMAJOR_AXIS,PERIOD,APOGEE,PERIGEE,DECAYED
50185.0,STARLINK-3279,PAYLOAD,2023-02-02 22:55:34,15.08843455,0.000119,53.2134,285.1898,97.724,262.3887,9.6055e-05,1.241e-05,0.0,0 STARLINK-3279,1 50185U 21125AF  23033.95526086  .00001241  00000-0  96055-4 0  9999,2 50185  53.2134 285.1898 0001190  97.7240 262.3887 15.08843455 65426,6917.87,95.437,540.558,538.912,0.0
50185.0,STARLINK-3279,PAYLOAD,2023-02-03 13:14:03,15.08838122,0.0001169,53.2141,282.5137,95.4044,264.7082,0.00010804,1.432e-05,0.0,0 STARLINK-3279,1 50185U 21125AF  23034.55142505  .00001432  00000-0  10804-3 0  9995,2 50185  53.2141 282.5137 0001169  95.4044 264.7082 15.08838122 65512,6917.886,95.438,540.56,538.942,0.0
50185.0,STARLINK-3279,PAYLOAD,2023-02-03 18:00:12,15.08832193,0.000113,53.2139,281.6218,92.8615,267.2507,-5.4471e-05,-1.154e-05,0.0,0 STARLINK-3279,1 50185U 21125AF  23034.75014865 -.00001154  00000-0 -54471-4 0  9996,2 50185  53.2139 281.6218 0001130  92.8615 267.2507 15.08832193 66021,6917.904,95.438,540.551,538.988,0.0
50185.0,STARLINK-3279,PAYLOAD,2023-02-04 13:04:49,15.08843011,0.0001191,53.214,278.0535,81.8181,278.2946,0.00010174,1.332e-05,0.0,0 STARLINK-3279,1 50185U 21125AF  23035.54502268  .00001332  00000-0  10174-3 0  9990,2 50185  53.2140 278.0535 0001191  81.8181 278.2946 15.08843011 65667,6917.871,95.437,540.56,538.912,0.0
50185.0,STARLINK-3279,PAYLOAD,2023-02-04 21:01:45,15.08847255,0.0001205,53.2141,276.5666,84.5038,275.6092,0.0001485,2.077e-05,0.0,0 STARLINK-3279,1 50185U 21125AF  23035.87621775  .00002077  00000-0  14850-3 0  9993,2 50185  53.2141 276.5666 0001205  84.5038 275.6092 15.08847255 66199,6917.858,95.437,540.557,538.89,0.0
50185.0,STARLINK-3279,PAYLOAD,2023-02-05 01:47:54,15.08853337,0.0001207,53.214,275.6742,81.6448,278.4681,0.00015071,2.112e-05,0.0,0 STARLINK-3279,1 50185U 21125AF  23036.07493270  .00002112  00000-0  15071-3 0  9999,2 50185  53.2140 275.6742 0001207  81.6448 278.4681 15.08853337 65741,6917.84,95.437,540.54,538.87,0.0
50185.0,STARLINK-3279,PAYLOAD,2023-02-05 22:27:54,15.08857102,0.0001221,53.2138,271.8069,95.6732,264.4399,0.00031546,4.739e-05,0.0,0 STARLINK-3279,1 50185U 21125AF  23036.93604277  .00004739  00000-0  31546-3 0  9997,2 50185  53.2138 271.8069 0001221  95.6732 264.4399 15.08857102 66358,6917.828,95.436,540.538,538.848,0.0
50185.0,STARLINK-3279,PAYLOAD,2023-02-06 01:38:40,15.08864471,0.0001174,53.2128,271.2135,90.227,269.8857,0.00036584,5.543e-05,0.0,0 STARLINK-3279,1 50185U 21125AF  23037.06852307  .00005543  00000-0  36584-3 0  9992,2 50185  53.2128 271.2135 0001174  90.2270 269.8857 15.08864471 66377,6917.806,95.436,540.483,538.858,0.0
50185.0,STARLINK-3279,PAYLOAD,2023-02-06 22:18:42,15.08836314,9.75e-05,53.2127,267.348,108.0877,252.0221,-0.00020851,-3.604e-05,0.0,0 STARLINK-3279,1 50185U 21125AF  23037.92965360 -.00003604  00000-0 -20851-3 0  9999,2 50185  53.2127 267.3480 0000975 108.0877 252.0221 15.08836314 66020,6917.892,95.438,540.431,539.082,0.0
50185.0,STARLINK-3279,PAYLOAD,2023-02-07 12:37:10,15.08830208,0.0001056,53.213,264.6724,112.4238,247.6866,-0.00012711,-2.31e-05,0.0,0 STARLINK-3279,1 50185U 21125AF  23038.52581936 -.00002310  00000-0 -12711-3 0  9998,2 50185  53.2130 264.6724 0001056 112.4238 247.6866 15.08830208 66599,6917.91,95.438,540.506,539.045,0.0
50185.0,STARLINK-3279,PAYLOAD,2023-02-07 22:09:29,15.08830096,9.5e-05,53.2125,262.8875,110.9619,249.1474,-3.6851e-05,-8.74e-06,0.0,0 STARLINK-3279,1 50185U 21125AF  23038.92326284 -.00000874  00000-0 -36851-4 0  9990,2 50185  53.2125 262.8875 0000950 110.9619 249.1474 15.08830096 66652,6917.911,95.438,540.433,539.118,0.0
50185.0,STARLINK-3279,PAYLOAD,2023-02-08 01:20:16,15.08833985,9.76e-05,53.2123,262.292,111.0997,249.0099,9.5724e-05,1.236e-05,0.0,0 STARLINK-3279,1 50185U 21125AF  23039.05574277  .00001236  00000-0  95724-4 0  9997,2 50185  53.2123 262.2920 0000976 111.0997 249.0099 15.08833985 66195,6917.899,95.438,540.439,539.089,0.0
50185.0,STARLINK-3279,PAYLOAD,2023-02-08 12:27:58,15.08829681,8.6e-05,53.2127,260.2108,102.5689,257.5399,0.00029201,4.361e-05,0.0,0 STARLINK-3279,1 50185U 21125AF  23039.51943140  .00004361  00000-0  29201-3 0  9995,2 50185  53.2127 260.2108 0000860 102.5689 257.5399 15.08829681 66746,6917.912,95.438,540.372,539.182,0.0
50185.0,STARLINK-3279,PAYLOAD,2023-02-08 22:00:17,15.08838886,9.35e-05,53.2122,258.4267,105.7387,254.3709,0.0004311,6.58e-05,0.0,0 STARLINK-3279,1 50185U 21125AF  23039.91687095  .00006580  00000-0  43110-3 0  9993,2 50185  53.2122 258.4267 0000935 105.7387 254.3709 15.08838886 66803,6917.884,95.438,540.396,539.102,0.0
50185.0,STARLINK-3279,PAYLOAD,2023-02-09 10:43:23,15.08835787,9.99e-05,53.2119,256.0472,100.727,259.3834,0.00026179,3.881e-05,0.0,0 STARLINK-3279,1 50185U 21125AF  23040.44679443  .00003881  00000-0  26179-3 0  9998,2 50185  53.2119 256.0472 0000999 100.7270 259.3834 15.08835787 66886,6917.893,95.438,540.449,539.067,0.0
50185.0,STARLINK-3279,PAYLOAD,2023-02-09 20:15:41,15.08840132,9.76e-05,53.2119,254.2629,95.1087,265.0016,0.00028977,4.327e-05,0.0,0 STARLINK-3279,1 50185U 21125AF  23040.84423474  .00004327  00000-0  28977-3 0  9997,2 50185  53.2119 254.2629 0000976  95.1087 265.0016 15.08840132 66468,6917.88,95.438,540.42,539.07,0.0
50185.0,STARLINK-3279,PAYLOAD,2023-02-09 23:26:27,15.08848549,9.45e-05,53.212,253.668,90.9611,269.149,0.00046654,7.147e-05,0.0,0 STARLINK-3279,1 50185U 21125AF  23040.97671242  .00007147  00000-0  46654-3 0  9994,2 50185  53.2120 253.6680 0000945  90.9611 269.1490 15.08848549 66968,6917.854,95.437,540.373,539.066,0.0
50185.0,STARLINK-3279,PAYLOAD,2023-02-10 15:20:22,15.08787307,9.82e-05,53.2135,250.6995,55.3259,304.7825,-0.00067173,-0.00010947,0.0,0 STARLINK-3279,1 50185U 21125AF  23041.63914698 -.00010947  00000-0 -67173-3 0  9996,2 50185  53.2135 250.6995 0000982  55.3259 304.7825 15.08787307 66584,6918.041,95.441,540.586,539.227,0.0
50185.0,STARLINK-3279,PAYLOAD,2023-02-10 20:06:32,15.08785669,8.65e-05,53.2128,249.8038,92.6228,267.4863,-0.00051455,-8.455e-05,0.0,0 STARLINK-3279,1 50185U 21125AF  23041.83787536 -.00008455  00000-0 -51455-3 0  9994,2 50185  53.2128 249.8038 0000865  92.6228 267.4863 15.08785669 67097,6918.046,95.441,540.51,539.313,0.0
50185.0,STARLINK-3279,PAYLOAD,2023-02-11 12:00:25,15.08777901,0.0001289,53.2121,246.8278,68.1859,291.9271,-0.00046384,-7.65e-05,0.0,0 STARLINK-3279,1 50185U 21125AF  23042.50029474 -.00007650  00000-0 -46384-3 0  9990,2 50185  53.2121 246.8278 0001289  68.1859 291.9271 15.08777901 66715,6918.07,95.441,540.827,539.043,0.0
50185.0,STARLINK-3279,PAYLOAD,2023-02-11 19:57:22,15.08778464,0.0001281,53.2124,245.3409,85.5637,274.5501,-0.00013417,-2.419e-05,0.0,0 STARLINK-3279,1 50185U 21125AF  23042.83150777 -.00002419  00000-0 -13417-3 0  9996,2 50185  53.2124 245.3409 0001281  85.5637 274.5501 15.08778464 67244,6918.068,95.441,540.82,539.047,0.0
50185.0,STARLINK-3279,PAYLOAD,2023-02-11 23:08:08,15.08799063,0.0001627,53.2129,244.745,91.1968,268.921,0.00076341,0.00011869,0.0,0 STARLINK-3279,1 50185U 21125AF  23042.96398906  .00011869  00000-0  76341-3 0  9990,2 50185  53.2129 244.7450 0001627  91.1968 268.9210 15.08799063 66782,6918.006,95.44,540.996,538.745,0.0
50185.0,STARLINK-3279,PAYLOAD,2023-02-12 13:26:35,15.08864368,0.0001359,53.2128,242.0701,81.5835,278.5311,0.0015858,0.00025057,0.0,0 STARLINK-3279,1 50185U 21125AF  23043.56013716  .00025057  00000-0  15858-2 0  9999,2 50185  53.2128 242.0701 0001359  81.5835 278.5311 15.08864368 67353,6917.806,95.436,540.611,538.731,0.0
50185.0,STARLINK-3279,PAYLOAD,2023-02-12 15:01:58,15.08871127,0.0001408,53.2129,241.7726,78.3729,281.7421,0.0016901,0.00026735,0.0,0 STARLINK-3279,1 50185U 21125AF  23043.62637633  .00026735  00000-0  16901-2 0  9990,2 50185  53.2129 241.7726 0001408  78.3729 281.7421 15.08871127 66884,6917.785,95.436,540.624,538.676,0.0
50185.0,STARLINK-3279,PAYLOAD,2023-02-13 13:17:19,15.08907794,0.0001478,53.2132,237.6087,82.2517,277.8643,0.00084526,0.00013215,0.0,0 STARLINK-3279,1 50185U 21125AF  23044.55370012  .00013215  00000-0  84526-3 0  9996,2 50185  53.2132 237.6087 0001478  82.2517 277.8643 15.08907794 67500,6917.673,95.433,540.561,538.516,0.0
50185.0,STARLINK-3279,PAYLOAD,2023-02-13 19:38:51,15.08917279,0.000148,53.2131,236.4187,82.2963,277.8197,0.00093535,0.00014661,0.0,0 STARLINK-3279,1 50185U 21125AF  23044.81864670  .00014661  00000-0  93535-3 0  9999,2 50185  53.2131 236.4187 0001480  82.2963 277.8197 15.08917279 67069,6917.644,95.433,540.533,538.485,0.0
50185.0,STARLINK-3279,PAYLOAD,2023-02-14 11:32:41,15.08883114,0.0002375,53.213,233.4452,86.2111,273.9153,-4.97e-05,-1.08e-05,0.0,0 STARLINK-3279,1 50185U 21125AF  23045.48103460 -.00001080  00000-0 -49700-4 0  9995,2 50185  53.2130 233.4452 0002375  86.2111 273.9153 15.08883114 67163,6917.749,95.435,541.257,537.971,0.0
50185.0,STARLINK-3279,PAYLOAD,2023-02-14 19:29:36,15.08860553,0.000106,53.2129,231.9582,87.1915,272.9199,-0.00017852,-3.129e-05,0.0,0 STARLINK-3279,1 50185U 21125AF  23045.81223150 -.00003129  00000-0 -17852-3 0  9999,2 50185  53.2129 231.9582 0001060  87.1915 272.9199 15.08860553 67217,6917.818,95.436,540.416,538.949,0.0
50185.0,STARLINK-3279,PAYLOAD,2023-02-15 05:01:55,15.08847169,8.46e-05,53.213,230.1751,97.9729,262.1359,0.00030456,4.564e-05,0.0,0 STARLINK-3279,1 50185U 21125AF  23046.20967321  .00004564  00000-0  30456-3 0  9995,2 50185  53.2130 230.1751 0000846  97.9729 262.1359 15.08847169 67274,6917.858,95.437,540.309,539.138,0.0
50185.0,STARLINK-3279,PAYLOAD,2023-02-15 11:23:28,15.08849171,9.85e-05,53.2115,228.9857,99.6208,260.4895,5.0383e-05,5.14e-06,0.0,0 STARLINK-3279,1 50185U 21125AF  23046.47463215  .00000514  00000-0  50383-4 0  9990,2 50185  53.2115 228.9857 0000985  99.6208 260.4895 15.08849171 67792,6917.852,95.437,540.399,539.036,0.0
